{
  "norad_id": 59766,
  "name": "STARLINK-31739",
  "history": [
    {
      "epoch": "2026-03-28T19:30:43.708896Z",
      "apogee_km": 475.85787501658433,
      "perigee_km": 474.5889068066035,
      "latitude_deg": -5.3834697886530256e-05,
      "longitude_deg": 176.2202684256764,
      "height_km": 476.2492075250225,
      "semi_major_axis_km": 6853.360390911594,
      "eccentricity": 9.258e-05,
      "inclination_deg": 53.159,
      "raan_deg": 295.1305,
      "arg_perigee_deg": 101.5793,
      "mean_anomaly_deg": 258.5311,
      "mean_motion_rev_day": 15.30197213
    }
  ]
}